{
    "CCSDS_OMM_VERS": "3.0",
    "COMMENT": "GENERATED VIA SPACE-TRACK.ORG API",
    "CREATION_DATE": "2025-05-21T22:56:20",
    "ORIGINATOR": "18 SPCS",
    "OBJECT_NAME": "BEIDOU 10",
    "OBJECT_ID": "2011-073A",
    "CENTER_NAME": "EARTH",
    "REF_FRAME": "TEME",
    "TIME_SYSTEM": "UTC",
    "MEAN_ELEMENT_THEORY": "SGP4",
    "EPOCH": "2025-05-21T20:21:38.572704",
    "MEAN_MOTION": "1.00254352",
    "ECCENTRICITY": "0.01043760",
    "INCLINATION": "48.3935",
    "RA_OF_ASC_NODE": "276.3753",
    "ARG_OF_PERICENTER": "219.0943",
    "MEAN_ANOMALY": "142.9063",
    "EPHEMERIS_TYPE": "0",
    "CLASSIFICATION_TYPE": "U",
    "NORAD_CAT_ID": "37948",
    "ELEMENT_SET_NO": "999",
    "REV_AT_EPOCH": "4948",
    "BSTAR": "0.00000000000000",
    "MEAN_MOTION_DOT": "-0.00000176",
    "MEAN_MOTION_DDOT": "0.0000000000000",
    "SEMIMAJOR_AXIS": "42169.620",
    "PERIOD": "1436.347",
    "APOAPSIS": "36231.634",
    "PERIAPSIS": "35351.335",
    "OBJECT_TYPE": "PAYLOAD",
    "RCS_SIZE": "LARGE",
    "COUNTRY_CODE": "PRC",
    "LAUNCH_DATE": "2011-12-01",
    "SITE": "XSC",
    "DECAY_DATE": null,
    "FILE": "4735517",
    "GP_ID": "288110736",
    "TLE_LINE0": "0 BEIDOU 10",
    "TLE_LINE1": "1 37948U 11073A   25141.84836311 -.00000176  00000-0  00000+0 0  9994",
    "TLE_LINE2": "2 37948  48.3935 276.3753 0104376 219.0943 142.9063  1.00254352 49489"
}